{"type": "FeatureCollection", "features": [ {"type": "Feature", "properties": {"norad_id": 34553, "name": "COSMOS 2251 DEB", "group": "cosmos-2251-debris", "lat": 52.87479139290597, "lon": -172.8835216064123, "alt_km": 708.2154630888454, "timestamp": "2025-12-26T22:28:06.180010+00:00", "meta": {"OBJECT_NAME": "COSMOS 2251 DEB", "OBJECT_ID": "1993-036UP", "EPOCH": "2025-12-26T10:49:08.948064", "MEAN_MOTION": 14.57851907, "ECCENTRICITY": 0.0019035, "INCLINATION": 74.025, "RA_OF_ASC_NODE": 165.8036, "ARG_OF_PERICENTER": 242.4865, "MEAN_ANOMALY": 147.2003, "EPHEMERIS_TYPE": 0, "CLASSIFICATION_TYPE": "U", "NORAD_CAT_ID": 34553, "ELEMENT_SET_NO": 999, "REV_AT_EPOCH": 88296, "BSTAR": 0.0012095, "MEAN_MOTION_DOT": 5.528e-05, "MEAN_MOTION_DDOT": 0}, "tle": {"line1": "1 34553U 93036UP  25360.45079801  .00005528  00000+0  12095-2 0  9999", "line2": "2 34553  74.0250 165.8036 0019035 242.4865 147.2003 14.57851907882965"}}, "geometry": {"type": "Point", "coordinates": [-172.8835216064123, 52.87479139290597]}}, {"type": "Feature", "properties": {"norad_id": 34554, "name": "COSMOS 2251 DEB", "group": "cosmos-2251-debris", "lat": -46.565583756766465, "lon": 110.44600882068956, "alt_km": 775.5684972610597, "timestamp": "2025-12-26T22:28:06.180021+00:00", "meta": {"OBJECT_NAME": "COSMOS 2251 DEB", "OBJECT_ID": "1993-036UQ", "EPOCH": "2025-12-26T18:12:27.499104", "MEAN_MOTION": 14.37965556, "ECCENTRICITY": 0.002358, "INCLINATION": 74.039, "RA_OF_ASC_NODE": 273.1783, "ARG_OF_PERICENTER": 332.916, "MEAN_ANOMALY": 57.668, "EPHEMERIS_TYPE": 0, "CLASSIFICATION_TYPE": "U", "NORAD_CAT_ID": 34554, "ELEMENT_SET_NO": 999, "REV_AT_EPOCH": 87957, "BSTAR": 0.00031633, "MEAN_MOTION_DOT": 9.33e-06, "MEAN_MOTION_DDOT": 0}, "tle": {"line1": "1 34554U 93036UQ  25360.75865161  .00000933  00000+0  31633-3 0  9990", "line2": "2 34554  74.0390 273.1783 0023580 332.9160  57.6680 14.37965556879578"}}, "geometry": {"type": "Point", "coordinates": [110.44600882068956, -46.565583756766465]}}, {"type": "Feature", "properties": {"norad_id": 34556, "name": "COSMOS 2251 DEB", "group": "cosmos-2251-debris", "lat": -73.643873646883, "lon": 19.334167006512, "alt_km": 643.8284703101581, "timestamp": "2025-12-26T22:28:06.180031+00:00", "meta": {"OBJECT_NAME": "COSMOS 2251 DEB", "OBJECT_ID": "1993-036US", "EPOCH": "2025-12-26T06:45:30.335040", "MEAN_MOTION": 14.78213795, "ECCENTRICITY": 0.0006041, "INCLINATION": 74.0152, "RA_OF_ASC_NODE": 98.2328, "ARG_OF_PERICENTER": 157.1628, "MEAN_ANOMALY": 234.2756, "EPHEMERIS_TYPE": 0, "CLASSIFICATION_TYPE": "U", "NORAD_CAT_ID": 34556, "ELEMENT_SET_NO": 999, "REV_AT_EPOCH": 88529, "BSTAR": 0.0021721, "MEAN_MOTION_DOT": 0.00015763, "MEAN_MOTION_DDOT": 0}, "tle": {"line1": "1 34556U 93036US  25360.28160110  .00015763  00000+0  21721-2 0  9995", "line2": "2 34556  74.0152  98.2328 0006041 157.1628 234.2756 14.78213795885295"}}, "geometry": {"type": "Point", "coordinates": [19.334167006512, -73.643873646883]}}, {"type": "Feature", "properties": {"norad_id": 34560, "name": "COSMOS 2251 DEB", "group": "cosmos-2251-debris", "lat": -52.81816392269413, "lon": -43.32395676829937, "alt_km": 652.0937381012163, "timestamp": "2025-12-26T22:28:06.180042+00:00", "meta": {"OBJECT_NAME": "COSMOS 2251 DEB", "OBJECT_ID": "1993-036UW", "EPOCH": "2025-12-26T17:04:38.801280", "MEAN_MOTION": 14.72497641, "ECCENTRICITY": 0.0013549, "INCLINATION": 74.0169, "RA_OF_ASC_NODE": 114.9128, "ARG_OF_PERICENTER": 199.4977, "MEAN_ANOMALY": 286.084, "EPHEMERIS_TYPE": 0, "CLASSIFICATION_TYPE": "U", "NORAD_CAT_ID": 34560, "ELEMENT_SET_NO": 999, "REV_AT_EPOCH": 88457, "BSTAR": 0.0022819, "MEAN_MOTION_DOT": 0.0001451, "MEAN_MOTION_DDOT": 0}, "tle": {"line1": "1 34560U 93036UW  25360.71156020  .00014510  00000+0  22819-2 0  9991", "line2": "2 34560  74.0169 114.9128 0013549 199.4977 286.0840 14.72497641884576"}}, "geometry": {"type": "Point", "coordinates": [-43.32395676829937, -52.81816392269413]}}, {"type": "Feature", "properties": {"norad_id": 34563, "name": "COSMOS 2251 DEB", "group": "cosmos-2251-debris", "lat": 52.61863100043013, "lon": -24.799648186372675, "alt_km": 739.8806824639287, "timestamp": "2025-12-26T22:28:06.180052+00:00", "meta": {"OBJECT_NAME": "COSMOS 2251 DEB", "OBJECT_ID": "1993-036UZ", "EPOCH": "2025-12-26T18:37:48.023328", "MEAN_MOTION": 14.46553942, "ECCENTRICITY": 0.0013902, "INCLINATION": 74.0365, "RA_OF_ASC_NODE": 177.5011, "ARG_OF_PERICENTER": 270.8505, "MEAN_ANOMALY": 100.91, "EPHEMERIS_TYPE": 0, "CLASSIFICATION_TYPE": "U", "NORAD_CAT_ID": 34563, "ELEMENT_SET_NO": 999, "REV_AT_EPOCH": 88400, "BSTAR": 0.00049252, "MEAN_MOTION_DOT": 1.75e-05, "MEAN_MOTION_DDOT": 0}, "tle": {"line1": "1 34563U 93036UZ  25360.77625027  .00001750  00000+0  49252-3 0  9991", "line2": "2 34563  74.0365 177.5011 0013902 270.8505 100.9100 14.46553942884006"}}, "geometry": {"type": "Point", "coordinates": [-24.799648186372675, 52.61863100043013]}}, {"type": "Feature", "properties": {"norad_id": 34564, "name": "COSMOS 2251 DEB", "group": "cosmos-2251-debris", "lat": -33.0417830907417, "lon": -158.9877534545019, "alt_km": 748.3265249154847, "timestamp": "2025-12-26T22:28:06.180062+00:00", "meta": {"OBJECT_NAME": "COSMOS 2251 DEB", "OBJECT_ID": "1993-036VA", "EPOCH": "2025-12-26T09:34:57.415296", "MEAN_MOTION": 14.40711642, "ECCENTRICITY": 0.001948, "INCLINATION": 74.031, "RA_OF_ASC_NODE": 212.7395, "ARG_OF_PERICENTER": 314.7158, "MEAN_ANOMALY": 107.2082, "EPHEMERIS_TYPE": 0, "CLASSIFICATION_TYPE": "U", "NORAD_CAT_ID": 34564, "ELEMENT_SET_NO": 999, "REV_AT_EPOCH": 88203, "BSTAR": 0.00022518, "MEAN_MOTION_DOT": 6.94e-06, "MEAN_MOTION_DDOT": 0}, "tle": {"line1": "1 34564U 93036VA  25360.39927564  .00000694  00000+0  22518-3 0  9993", "line2": "2 34564  74.0310 212.7395 0019480 314.7158 107.2082 14.40711642882030"}}, "geometry": {"type": "Point", "coordinates": [-158.9877534545019, -33.0417830907417]}}, {"type": "Feature", "properties": {"norad_id": 34567, "name": "COSMOS 2251 DEB", "group": "cosmos-2251-debris", "lat": -56.816492643295476, "lon": -22.82245295690862, "alt_km": 776.383498814821, "timestamp": "2025-12-26T22:28:06.180072+00:00", "meta": {"OBJECT_NAME": "COSMOS 2251 DEB", "OBJECT_ID": "1993-036VD", "EPOCH": "2025-12-26T18:30:40.311360", "MEAN_MOTION": 14.24032429, "ECCENTRICITY": 0.0074034, "INCLINATION": 74.0413, "RA_OF_ASC_NODE": 131.5262, "ARG_OF_PERICENTER": 202.7595, "MEAN_ANOMALY": 272.239, "EPHEMERIS_TYPE": 0, "CLASSIFICATION_TYPE": "U", "NORAD_CAT_ID": 34567, "ELEMENT_SET_NO": 999, "REV_AT_EPOCH": 87324, "BSTAR": 0.00027646, "MEAN_MOTION_DOT": 6.28e-06, "MEAN_MOTION_DDOT": 0}, "tle": {"line1": "1 34567U 93036VD  25360.77129990  .00000628  00000+0  27646-3 0  9999", "line2": "2 34567  74.0413 131.5262 0074034 202.7595 272.2390 14.24032429873244"}}, "geometry": {"type": "Point", "coordinates": [-22.82245295690862, -56.816492643295476]}}, {"type": "Feature", "properties": {"norad_id": 34569, "name": "COSMOS 2251 DEB", "group": "cosmos-2251-debris", "lat": 73.54022542395407, "lon": -111.1644940127894, "alt_km": 797.1796493263964, "timestamp": "2025-12-26T22:28:06.180083+00:00", "meta": {"OBJECT_NAME": "COSMOS 2251 DEB", "OBJECT_ID": "1993-036VF", "EPOCH": "2025-12-26T13:58:05.758176", "MEAN_MOTION": 14.24786035, "ECCENTRICITY": 0.015791, "INCLINATION": 73.9894, "RA_OF_ASC_NODE": 173.1059, "ARG_OF_PERICENTER": 358.3355, "MEAN_ANOMALY": 70.1274, "EPHEMERIS_TYPE": 0, "CLASSIFICATION_TYPE": "U", "NORAD_CAT_ID": 34569, "ELEMENT_SET_NO": 999, "REV_AT_EPOCH": 87165, "BSTAR": 0.00046481, "MEAN_MOTION_DOT": 1.207e-05, "MEAN_MOTION_DDOT": 0}, "tle": {"line1": "1 34569U 93036VF  25360.58201109  .00001207  00000+0  46481-3 0  9995", "line2": "2 34569  73.9894 173.1059 0157910 358.3355  70.1274 14.24786035871658"}}, "geometry": {"type": "Point", "coordinates": [-111.1644940127894, 73.54022542395407]}}, {"type": "Feature", "properties": {"norad_id": 34570, "name": "COSMOS 2251 DEB", "group": "cosmos-2251-debris", "lat": -3.644223104932884, "lon": 14.646175820024403, "alt_km": 944.0514313598205, "timestamp": "2025-12-26T22:28:06.180093+00:00", "meta": {"OBJECT_NAME": "COSMOS 2251 DEB", "OBJECT_ID": "1993-036VG", "EPOCH": "2025-12-25T13:10:11.389152", "MEAN_MOTION": 13.99841179, "ECCENTRICITY": 0.0190153, "INCLINATION": 73.9578, "RA_OF_ASC_NODE": 196.0084, "ARG_OF_PERICENTER": 75.6314, "MEAN_ANOMALY": 316.795, "EPHEMERIS_TYPE": 0, "CLASSIFICATION_TYPE": "U", "NORAD_CAT_ID": 34570, "ELEMENT_SET_NO": 999, "REV_AT_EPOCH": 85780, "BSTAR": 0.00046738, "MEAN_MOTION_DOT": 7.78e-06, "MEAN_MOTION_DDOT": 0}, "tle": {"line1": "1 34570U 93036VG  25359.54874293  .00000778  00000+0  46738-3 0  9998", "line2": "2 34570  73.9578 196.0084 0190153  75.6314 316.7950 13.99841179857804"}}, "geometry": {"type": "Point", "coordinates": [14.646175820024403, -3.644223104932884]}}, {"type": "Feature", "properties": {"norad_id": 34571, "name": "COSMOS 2251 DEB", "group": "cosmos-2251-debris", "lat": 17.666300444495132, "lon": 161.05593248600076, "alt_km": 774.052069829916, "timestamp": "2025-12-26T22:28:06.180104+00:00", "meta": {"OBJECT_NAME": "COSMOS 2251 DEB", "OBJECT_ID": "1993-036VH", "EPOCH": "2025-12-24T20:40:26.923008", "MEAN_MOTION": 14.49017935, "ECCENTRICITY": 0.0064888, "INCLINATION": 74.0401, "RA_OF_ASC_NODE": 159.7142, "ARG_OF_PERICENTER": 192.1385, "MEAN_ANOMALY": 167.8215, "EPHEMERIS_TYPE": 0, "CLASSIFICATION_TYPE": "U", "NORAD_CAT_ID": 34571, "ELEMENT_SET_NO": 999, "REV_AT_EPOCH": 87469, "BSTAR": 0.003002, "MEAN_MOTION_DOT": 0.00011689, "MEAN_MOTION_DDOT": 0}, "tle": {"line1": "1 34571U 93036VH  25358.86142272  .00011689  00000+0  30020-2 0  9997", "line2": "2 34571  74.0401 159.7142 0064888 192.1385 167.8215 14.49017935874697"}}, "geometry": {"type": "Point", "coordinates": [161.05593248600076, 17.666300444495132]}}]}